1 43013U 17073A   26032.45791190  .00000080  00000+0  58689-4 0  9995
2 43013  98.7653 333.2144 0000637  17.1593 342.9605 14.19525850425216
